CZ-2C R/B               
1 54039U 22132E   25360.44003166  .00030141  00000+0  43521-3 0  9997
2 54039  97.2953 356.9085 0020798  10.1574 350.0097 15.55659291178961
GSLV R/B                
1 54149U 22138AN  25360.56671684  .00002577  00000+0  22491-3 0  9999
2 54149  87.3823 190.8430 0023870  60.5120 299.8488 14.96200071172991
XRISM                   
1 57800U 23137A   25360.77818028  .00006383  00000+0  37237-3 0  9997
2 57800  31.0031  34.8980 0007630  26.4810 333.6217 15.10484032126753
ACS3                    
1 59588U 24077B   25360.83305398  .00025159  00000+0  21318-1 0  9997
2 59588  97.2581 313.2899 0073859 303.4463  55.9651 13.86139332 84090
SZ-21 MODULE            
1 66515U 25246C   25359.19228706  .00029146  00000+0  31272-3 0  9990
2 66515  41.4767 300.0489 0004589 327.9877  32.0683 15.63137537  6398
